NORAD_CAT_ID,OBJECT_NAME,OBJECT_TYPE,EPOCH,MEAN_MOTION,ECCENTRICITY,INCLINATION,RA_OF_ASC_NODE,ARG_OF_PERICENTER,MEAN_ANOMALY,BSTAR,MEAN_MOTION_DOT,MEAN_MOTION_DDOT,TLE_LINE0,TLE_LINE1,TLE_LINE2,SEMIMAJOR_AXIS,PERIOD,APOGEE,PERIGEE,DECAYED
49422.0,STARLINK-3161,PAYLOAD,2023-04-21 17:52:50,15.08845994,0.0001076,53.2159,275.9709,83.2128,276.8987,0.00011759,1.584e-05,0.0,0 STARLINK-3161,1 49422U 21104Q   23111.74502348  .00001584  00000-0  11759-3 0  9994,2 49422  53.2159 275.9709 0001076  83.2128 276.8987 15.08845994 80777,6917.862,95.437,540.471,538.983,0.0
49422.0,STARLINK-3161,PAYLOAD,2023-04-22 11:22:04,15.08838549,9.36e-05,53.2143,272.699,73.1933,286.9162,-1.0039e-05,-4.47e-06,0.0,0 STARLINK-3161,1 49422U 21104Q   23112.47366693 -.00000447  00000-0 -10039-4 0  9996,2 49422  53.2143 272.6990 0000936  73.1933 286.9162 15.08838549 79775,6917.885,95.438,540.397,539.102,0.0
49422.0,STARLINK-3161,PAYLOAD,2023-04-22 17:43:37,15.08844181,9.83e-05,53.2141,271.5107,73.0119,287.0981,6.481e-05,7.44e-06,0.0,0 STARLINK-3161,1 49422U 21104Q   23112.73862286  .00000744  00000-0  64810-4 0  9998,2 49422  53.2141 271.5107 0000983  73.0119 287.0981 15.08844181 79813,6917.868,95.437,540.413,539.053,0.0
49422.0,STARLINK-3161,PAYLOAD,2023-04-23 11:12:52,15.08826282,0.000115,53.2153,268.2388,84.2657,275.8467,-0.0001649,-2.91e-05,0.0,0 STARLINK-3161,1 49422U 21104Q   23113.46727366 -.00002910  00000-0 -16490-3 0  9997,2 49422  53.2153 268.2388 0001150  84.2657 275.8467 15.08826282 81031,6917.922,95.438,540.583,538.992,0.0
49422.0,STARLINK-3161,PAYLOAD,2023-04-24 11:03:37,15.08880103,0.0001108,53.216,263.7786,91.9722,268.1397,0.00091176,0.00014268,0.0,0 STARLINK-3161,1 49422U 21104Q   23114.46085517  .00014268  00000-0  91176-3 0  9994,2 49422  53.2160 263.7786 0001108  91.9722 268.1397 15.08880103 81187,6917.758,95.435,540.389,538.856,0.0
49422.0,STARLINK-3161,PAYLOAD,2023-04-25 02:57:29,15.08862548,7.47e-05,53.2164,260.8075,93.8909,266.2168,0.00040684,6.197e-05,0.0,0 STARLINK-3161,1 49422U 21104Q   23115.12325390  .00006197  00000-0  40684-3 0  9994,2 49422  53.2164 260.8075 0000747  93.8909 266.2168 15.08862548 81285,6917.811,95.436,540.193,539.16,0.0
49422.0,STARLINK-3161,PAYLOAD,2023-04-25 09:19:03,15.08805136,0.0001717,53.2181,259.6174,100.1417,259.9769,-0.00087896,-0.00014236,0.0,0 STARLINK-3161,1 49422U 21104Q   23115.38823182 -.00014236  00000-0 -87896-3 0  9995,2 49422  53.2181 259.6174 0001717 100.1417 259.9769 15.08805136 80212,6917.987,95.44,541.04,538.664,0.0
49422.0,STARLINK-3161,PAYLOAD,2023-04-26 09:09:52,15.08802097,0.0002571,53.2108,255.1569,95.4893,264.6393,0.00014675,2.046e-05,0.0,0 STARLINK-3161,1 49422U 21104Q   23116.38185434  .00002046  00000-0  14675-3 0  9996,2 49422  53.2108 255.1569 0002571  95.4893 264.6393 15.08802097 80368,6917.996,95.44,541.64,538.083,0.0
49422.0,STARLINK-3161,PAYLOAD,2023-04-26 20:17:33,15.08839003,0.0001082,53.216,253.0758,100.4608,259.6506,0.00044228,6.758e-05,0.0,0 STARLINK-3161,1 49422U 21104Q   23116.84553038  .00006758  00000-0  44228-3 0  9997,2 49422  53.2160 253.0758 0001082 100.4608 259.6506 15.08839003 80435,6917.883,95.438,540.497,539.0,0.0
49422.0,STARLINK-3161,PAYLOAD,2023-04-27 12:11:25,15.08844365,8.88e-05,53.2156,250.1027,94.6279,265.4814,0.00069698,0.00010823,0.0,0 STARLINK-3161,1 49422U 21104Q   23117.50793208  .00010823  00000-0  69698-3 0  9992,2 49422  53.2156 250.1027 0000888  94.6279 265.4814 15.08844365 80533,6917.867,95.437,540.346,539.118,0.0
49422.0,STARLINK-3161,PAYLOAD,2023-04-27 20:08:19,15.08863461,0.0001631,53.2188,248.615,121.9968,238.1183,0.00084103,0.00013131,0.0,0 STARLINK-3161,1 49422U 21104Q   23117.83911908  .00013131  00000-0  84103-3 0  9990,2 49422  53.2188 248.6150 0001631 121.9968 238.1183 15.08863461 81695,6917.809,95.436,540.802,538.545,0.0
49422.0,STARLINK-3161,PAYLOAD,2023-04-28 12:02:11,15.08851668,8.9e-05,53.2159,245.6425,96.0289,264.0805,6.1402e-05,6.9e-06,0.0,0 STARLINK-3161,1 49422U 21104Q   23118.50151803  .00000690  00000-0  61402-4 0  9999,2 49422  53.2159 245.6425 0000890  96.0289 264.0805 15.08851668 81795,6917.845,95.437,540.325,539.094,0.0
49422.0,STARLINK-3161,PAYLOAD,2023-04-28 18:23:43,15.08858965,0.0001154,53.2149,244.4517,96.802,263.3104,0.00019553,2.827e-05,0.0,0 STARLINK-3161,1 49422U 21104Q   23118.76647323  .00002827  00000-0  19553-3 0  9997,2 49422  53.2149 244.4517 0001154  96.8020 263.3104 15.08858965 81834,6917.822,95.436,540.486,538.889,0.0
49422.0,STARLINK-3161,PAYLOAD,2023-04-29 13:28:21,15.08846731,0.00012,53.2149,240.8806,103.0522,257.0604,-1.6099e-05,-5.44e-06,0.0,0 STARLINK-3161,1 49422U 21104Q   23119.56135466 -.00000544  00000-0 -16099-4 0  9995,2 49422  53.2149 240.8806 0001200 103.0522 257.0604 15.08846731 80848,6917.86,95.437,540.555,538.895,0.0
49422.0,STARLINK-3161,PAYLOAD,2023-04-29 18:14:30,15.08851586,0.0001022,53.2161,239.9889,100.3746,259.7362,8.0909e-05,1.001e-05,0.0,0 STARLINK-3161,1 49422U 21104Q   23119.76006988  .00001001  00000-0  80909-4 0  9991,2 49422  53.2161 239.9889 0001022 100.3746 259.7362 15.08851586 81982,6917.845,95.437,540.417,539.003,0.0
49422.0,STARLINK-3161,PAYLOAD,2023-04-30 13:19:08,15.08842712,0.0001103,53.2149,236.4207,104.2816,255.8299,0.00011135,1.485e-05,0.0,0 STARLINK-3161,1 49422U 21104Q   23120.55495403  .00001485  00000-0  11135-3 0  9994,2 49422  53.2149 236.4207 0001103 104.2816 255.8299 15.08842712 82107,6917.872,95.437,540.5,538.974,0.0
49422.0,STARLINK-3161,PAYLOAD,2023-05-01 13:09:55,15.08836505,0.0001084,53.2154,231.9604,102.0646,258.0468,5.5984e-05,6.03e-06,0.0,0 STARLINK-3161,1 49422U 21104Q   23121.54856044  .00000603  00000-0  55984-4 0  9998,2 49422  53.2154 231.9604 0001084 102.0646 258.0468 15.08836505 81148,6917.891,95.438,540.506,539.006,0.0
49422.0,STARLINK-3161,PAYLOAD,2023-05-01 14:45:18,15.08837344,0.0001019,53.2161,231.6648,95.3919,264.7189,6.5214e-05,7.5e-06,0.0,0 STARLINK-3161,1 49422U 21104Q   23121.61480064  .00000750  00000-0  65214-4 0  9991,2 49422  53.2161 231.6648 0001019  95.3919 264.7189 15.08837344 82266,6917.889,95.438,540.458,539.049,0.0
49422.0,STARLINK-3161,PAYLOAD,2023-05-01 16:20:41,15.08837811,0.0001018,53.2158,231.368,78.0527,282.058,8.9933e-05,1.144e-05,0.0,0 STARLINK-3161,1 49422U 21104Q   23121.68104134  .00001144  00000-0  89933-4 0  9991,2 49422  53.2158 231.3680 0001018  78.0527 282.0580 15.08837811 81162,6917.887,95.438,540.456,539.048,0.0
49422.0,STARLINK-3161,PAYLOAD,2023-05-02 13:00:42,15.08851837,9.66e-05,53.2159,227.5015,81.9958,278.1143,0.00033617,5.068e-05,0.0,0 STARLINK-3161,1 49422U 21104Q   23122.54215604  .00005068  00000-0  33617-3 0  9998,2 49422  53.2159 227.5015 0000966  81.9958 278.1143 15.08851837 81293,6917.844,95.437,540.377,539.041,0.0
49422.0,STARLINK-3161,PAYLOAD,2023-05-02 16:11:28,15.0885931,0.0001066,53.2159,226.9074,73.3729,286.738,0.0004807,7.375e-05,0.0,0 STARLINK-3161,1 49422U 21104Q   23122.67463329  .00007375  00000-0  48070-3 0  9993,2 49422  53.2159 226.9074 0001066  73.3729 286.7380 15.08859310 82422,6917.821,95.436,540.424,538.949,0.0
49422.0,STARLINK-3161,PAYLOAD,2023-05-03 12:51:29,15.08842838,0.0001012,53.216,223.041,71.9984,288.1119,0.00018109,2.596e-05,0.0,0 STARLINK-3161,1 49422U 21104Q   23123.53575970  .00002596  00000-0  18109-3 0  9995,2 49422  53.2160 223.0410 0001012  71.9984 288.1119 15.08842838 82551,6917.872,95.437,540.437,539.037,0.0
49422.0,STARLINK-3161,PAYLOAD,2023-05-03 14:26:52,15.08841412,0.000107,53.2158,222.7433,80.03,280.0813,0.00026873,3.992e-05,0.0,0 STARLINK-3161,1 49422U 21104Q   23123.60199957  .00003992  00000-0  26873-3 0  9998,2 49422  53.2158 222.7433 0001070  80.0300 280.0813 15.08841412 81453,6917.876,95.437,540.481,539.001,0.0
49422.0,STARLINK-3161,PAYLOAD,2023-05-04 12:42:16,15.08849171,9.51e-05,53.2162,218.5802,95.2011,264.9089,0.00055587,8.572e-05,0.0,0 STARLINK-3161,1 49422U 21104Q   23124.52935947  .00008572  00000-0  55587-3 0  9990,2 49422  53.2162 218.5802 0000951  95.2011 264.9089 15.08849171 81596,6917.852,95.437,540.375,539.059,0.0
49422.0,STARLINK-3161,PAYLOAD,2023-05-04 15:53:02,15.08852944,0.0001023,53.2166,217.9849,95.6557,264.4552,0.00062563,9.687e-05,0.0,0 STARLINK-3161,1 49422U 21104Q   23124.66183819  .00009687  00000-0  62563-3 0  9998,2 49422  53.2166 217.9849 0001023  95.6557 264.4552 15.08852944 82722,6917.841,95.437,540.414,538.998,0.0
49422.0,STARLINK-3161,PAYLOAD,2023-05-05 06:11:31,15.08842629,0.0001134,53.2159,215.3095,86.3124,273.7998,0.00024984,3.691e-05,0.0,0 STARLINK-3161,1 49422U 21104Q   23125.25800213  .00003691  00000-0  24984-3 0  9992,2 49422  53.2159 215.3095 0001134  86.3124 273.7998 15.08842629 82815,6917.872,95.437,540.522,538.953,0.0
49422.0,STARLINK-3161,PAYLOAD,2023-05-05 15:43:50,15.08847785,0.0001075,53.216,213.5251,84.0792,276.0323,0.00039582,6.019e-05,0.0,0 STARLINK-3161,1 49422U 21104Q   23125.65544108  .00006019  00000-0  39582-3 0  9991,2 49422  53.2160 213.5251 0001075  84.0792 276.0323 15.08847785 81760,6917.857,95.437,540.465,538.978,0.0
49422.0,STARLINK-3161,PAYLOAD,2023-05-06 06:02:18,15.08836869,0.0001174,53.2163,210.8492,87.1828,272.9299,0.00014087,1.955e-05,0.0,0 STARLINK-3161,1 49422U 21104Q   23126.25160415  .00001955  00000-0  14087-3 0  9990,2 49422  53.2163 210.8492 0001174  87.1828 272.9299 15.08836869 82965,6917.89,95.438,540.567,538.943,0.0
49422.0,STARLINK-3161,PAYLOAD,2023-05-06 12:23:51,15.08846056,0.000129,53.2173,209.662,79.9016,280.2122,0.00031659,4.755e-05,0.0,0 STARLINK-3161,1 49422U 21104Q   23126.51656360  .00004755  00000-0  31659-3 0  9993,2 49422  53.2173 209.6620 0001290  79.9016 280.2122 15.08846056 81899,6917.862,95.437,540.619,538.834,0.0
49422.0,STARLINK-3161,PAYLOAD,2023-05-07 12:14:37,15.08847879,0.0001171,53.2155,205.2021,93.6722,266.4404,0.0002455,3.622e-05,0.0,0 STARLINK-3161,1 49422U 21104Q   23127.51016115  .00003622  00000-0  24550-3 0  9996,2 49422  53.2155 205.2021 0001171  93.6722 266.4404 15.08847879 83155,6917.856,95.437,540.531,538.911,0.0
